XRISM                   
1 57800U 23137A   23330.18782774  .00008221  00000+0  66035-3 0  9996
2 57800  31.0033 228.5221 0010455 347.0225  13.0140 14.98723371 11952
